[{"OBJECT_NAME":"SHIJIAN-6 03B (SJ-6 03B)","OBJECT_ID":"2008-053B","EPOCH":"2026-03-09T23:28:00.216192","MEAN_MOTION":15.03879314,"ECCENTRICITY":0.00200774,"INCLINATION":97.8673,"RA_OF_ASC_NODE":87.2117,"ARG_OF_PERICENTER":21.0315,"MEAN_ANOMALY":339.1731,"EPHEMERIS_TYPE":0,"CLASSIFICATION_TYPE":"U","NORAD_CAT_ID":33409,"ELEMENT_SET_NO":999,"REV_AT_EPOCH":94783,"BSTAR":0.00032650966,"MEAN_MOTION_DOT":4.452e-5,"MEAN_MOTION_DDOT":0},{"OBJECT_NAME":"STARLINK-34932","OBJECT_ID":"2025-175F","EPOCH":"2026-03-09T15:51:11.767968","MEAN_MOTION":15.0566431,"ECCENTRICITY":0.0002,"INCLINATION":97.6026,"RA_OF_ASC_NODE":302.5887,"ARG_OF_PERICENTER":99.1446,"MEAN_ANOMALY":261.0007,"EPHEMERIS_TYPE":0,"CLASSIFICATION_TYPE":"U","NORAD_CAT_ID":65179,"ELEMENT_SET_NO":999,"REV_AT_EPOCH":3263,"BSTAR":0.0013425075,"MEAN_MOTION_DOT":0.00019371,"MEAN_MOTION_DDOT":0}]
